STARLINK-32612          
1 61972U 24210P   26068.34235245  .00033572  00000+0  12230-2 0  9993
2 61972  43.0011 182.0561 0003043 285.6662  74.3854 15.27601895 74820
KUIPER-00209            
1 67776U 26030N   26068.61786546  .00035298  00000+0  11963-2 0  9997
2 67776  51.8838 220.0775 0012191  59.1967 301.0215 15.30161950  5077
